[{"OBJECT_NAME":"COSMO-SKYMED 1","OBJECT_ID":"2007-023A","EPOCH":"2025-03-09T22:11:54.974976","MEAN_MOTION":14.82167327,"ECCENTRICITY":0.0001352,"INCLINATION":97.8917,"RA_OF_ASC_NODE":254.2608,"ARG_OF_PERICENTER":81.5593,"MEAN_ANOMALY":278.5773,"EPHEMERIS_TYPE":0,"CLASSIFICATION_TYPE":"U","NORAD_CAT_ID":31598,"ELEMENT_SET_NO":999,"REV_AT_EPOCH":96048,"BSTAR":0.00015272,"MEAN_MOTION_DOT":1.164e-5,"MEAN_MOTION_DDOT":0},{"OBJECT_NAME":"TERRASAR-X","OBJECT_ID":"2007-026A","EPOCH":"2025-03-09T13:21:56.932416","MEAN_MOTION":15.19145384,"ECCENTRICITY":0.0002136,"INCLINATION":97.4466,"RA_OF_ASC_NODE":77.9,"ARG_OF_PERICENTER":85.3652,"MEAN_ANOMALY":274.7826,"EPHEMERIS_TYPE":0,"CLASSIFICATION_TYPE":"U","NORAD_CAT_ID":31698,"ELEMENT_SET_NO":999,"REV_AT_EPOCH":98334,"BSTAR":0.00018517,"MEAN_MOTION_DOT":3.823e-5,"MEAN_MOTION_DDOT":0},{"OBJECT_NAME":"WORLDVIEW-1 (WV-1)","OBJECT_ID":"2007-041A","EPOCH":"2025-03-09T22:11:37.803840","MEAN_MOTION":15.2465838,"ECCENTRICITY":0.0002749,"INCLINATION":97.3863,"RA_OF_ASC_NODE":190.4756,"ARG_OF_PERICENTER":164.5902,"MEAN_ANOMALY":195.542,"EPHEMERIS_TYPE":0,"CLASSIFICATION_TYPE":"U","NORAD_CAT_ID":32060,"ELEMENT_SET_NO":999,"REV_AT_EPOCH":97220,"BSTAR":0.00065211,"MEAN_MOTION_DOT":0.00016058,"MEAN_MOTION_DDOT":0},{"OBJECT_NAME":"YAOGAN-3","OBJECT_ID":"2007-055A","EPOCH":"2025-03-09T22:36:41.566464","MEAN_MOTION":14.88056351,"ECCENTRICITY":0.0001749,"INCLINATION":97.8643,"RA_OF_ASC_NODE":97.9096,"ARG_OF_PERICENTER":109.1756,"MEAN_ANOMALY":250.9649,"EPHEMERIS_TYPE":0,"CLASSIFICATION_TYPE":"U","NORAD_CAT_ID":32289,"ELEMENT_SET_NO":999,"REV_AT_EPOCH":93675,"BSTAR":0.00051211,"MEAN_MOTION_DOT":4.653e-5,"MEAN_MOTION_DDOT":0},{"OBJECT_NAME":"COSMO-SKYMED 2","OBJECT_ID":"2007-059A","EPOCH":"2025-03-09T21:23:18.612960","MEAN_MOTION":14.82158229,"ECCENTRICITY":0.0001374,"INCLINATION":97.8915,"RA_OF_ASC_NODE":254.2193,"ARG_OF_PERICENTER":84.8015,"MEAN_ANOMALY":275.3355,"EPHEMERIS_TYPE":0,"CLASSIFICATION_TYPE":"U","NORAD_CAT_ID":32376,"ELEMENT_SET_NO":999,"REV_AT_EPOCH":93322,"BSTAR":0.00015188,"MEAN_MOTION_DOT":1.157e-5,"MEAN_MOTION_DDOT":0},{"OBJECT_NAME":"RADARSAT-2","OBJECT_ID":"2007-061A","EPOCH":"2025-03-09T22:06:19.546848","MEAN_MOTION":14.29983463,"ECCENTRICITY":0.0001212,"INCLINATION":98.5813,"RA_OF_ASC_NODE":77.4692,"ARG_OF_PERICENTER":89.6857,"MEAN_ANOMALY":270.4464,"EPHEMERIS_TYPE":0,"CLASSIFICATION_TYPE":"U","NORAD_CAT_ID":32382,"ELEMENT_SET_NO":999,"REV_AT_EPOCH":89960,"BSTAR":9.097e-5,"MEAN_MOTION_DOT":1.91e-6,"MEAN_MOTION_DDOT":0},{"OBJECT_NAME":"CARTOSAT-2A","OBJECT_ID":"2008-021A","EPOCH":"2025-03-09T21:42:11.090592","MEAN_MOTION":14.78782855,"ECCENTRICITY":0.0011975,"INCLINATION":97.828,"RA_OF_ASC_NODE":126.8399,"ARG_OF_PERICENTER":175.0434,"MEAN_ANOMALY":185.0898,"EPHEMERIS_TYPE":0,"CLASSIFICATION_TYPE":"U","NORAD_CAT_ID":32783,"ELEMENT_SET_NO":999,"REV_AT_EPOCH":91018,"BSTAR":0.0002143,"MEAN_MOTION_DOT":1.526e-5,"MEAN_MOTION_DDOT":0},{"OBJECT_NAME":"HUANJING 1A (HJ-1A)","OBJECT_ID":"2008-041A","EPOCH":"2025-03-09T22:45:15.128064","MEAN_MOTION":14.82165842,"ECCENTRICITY":0.0018534,"INCLINATION":97.6394,"RA_OF_ASC_NODE":69.3281,"ARG_OF_PERICENTER":217.8859,"MEAN_ANOMALY":142.1052,"EPHEMERIS_TYPE":0,"CLASSIFICATION_TYPE":"U","NORAD_CAT_ID":33320,"ELEMENT_SET_NO":999,"REV_AT_EPOCH":88959,"BSTAR":0.00044066,"MEAN_MOTION_DOT":3.47e-5,"MEAN_MOTION_DDOT":0},{"OBJECT_NAME":"HUANJING 1B (HJ-1B)","OBJECT_ID":"2008-041B","EPOCH":"2025-03-09T22:52:55.118208","MEAN_MOTION":14.81859062,"ECCENTRICITY":0.0035675,"INCLINATION":97.6297,"RA_OF_ASC_NODE":73.6346,"ARG_OF_PERICENTER":266.1853,"MEAN_ANOMALY":93.5282,"EPHEMERIS_TYPE":0,"CLASSIFICATION_TYPE":"U","NORAD_CAT_ID":33321,"ELEMENT_SET_NO":999,"REV_AT_EPOCH":88962,"BSTAR":0.00032817,"MEAN_MOTION_DOT":2.572e-5,"MEAN_MOTION_DDOT":0},{"OBJECT_NAME":"GEOEYE 1","OBJECT_ID":"2008-042A","EPOCH":"2025-03-09T21:24:32.285376","MEAN_MOTION":14.64525279,"ECCENTRICITY":0.0005279,"INCLINATION":98.1193,"RA_OF_ASC_NODE":143.7733,"ARG_OF_PERICENTER":80.4427,"MEAN_ANOMALY":279.7372,"EPHEMERIS_TYPE":0,"CLASSIFICATION_TYPE":"U","NORAD_CAT_ID":33331,"ELEMENT_SET_NO":999,"REV_AT_EPOCH":88218,"BSTAR":0.00022786,"MEAN_MOTION_DOT":1.161e-5,"MEAN_MOTION_DDOT":0},{"OBJECT_NAME":"THEOS","OBJECT_ID":"2008-049A","EPOCH":"2025-03-09T20:44:51.084096","MEAN_MOTION":14.20073604,"ECCENTRICITY":0.0001262,"INCLINATION":98.6207,"RA_OF_ASC_NODE":134.5688,"ARG_OF_PERICENTER":102.5646,"MEAN_ANOMALY":257.5672,"EPHEMERIS_TYPE":0,"CLASSIFICATION_TYPE":"U","NORAD_CAT_ID":33396,"ELEMENT_SET_NO":999,"REV_AT_EPOCH":85208,"BSTAR":8.9529e-5,"MEAN_MOTION_DOT":1.48e-6,"MEAN_MOTION_DDOT":0},{"OBJECT_NAME":"COSMO-SKYMED 3","OBJECT_ID":"2008-054A","EPOCH":"2025-03-09T20:55:51.238848","MEAN_MOTION":15.02326018,"ECCENTRICITY":0.0018411,"INCLINATION":97.8785,"RA_OF_ASC_NODE":274.6862,"ARG_OF_PERICENTER":37.684,"MEAN_ANOMALY":322.567,"EPHEMERIS_TYPE":0,"CLASSIFICATION_TYPE":"U","NORAD_CAT_ID":33412,"ELEMENT_SET_NO":999,"REV_AT_EPOCH":88711,"BSTAR":0.00057352,"MEAN_MOTION_DOT":7.548e-5,"MEAN_MOTION_DDOT":0},{"OBJECT_NAME":"YAOGAN-4","OBJECT_ID":"2008-061A","EPOCH":"2025-03-09T20:49:00.158880","MEAN_MOTION":14.81606998,"ECCENTRICITY":0.0015767,"INCLINATION":97.8989,"RA_OF_ASC_NODE":2.3217,"ARG_OF_PERICENTER":137.8172,"MEAN_ANOMALY":222.4257,"EPHEMERIS_TYPE":0,"CLASSIFICATION_TYPE":"U","NORAD_CAT_ID":33446,"ELEMENT_SET_NO":999,"REV_AT_EPOCH":87687,"BSTAR":0.00031707,"MEAN_MOTION_DOT":2.444e-5,"MEAN_MOTION_DDOT":0},{"OBJECT_NAME":"GOSAT (IBUKI)","OBJECT_ID":"2009-002A","EPOCH":"2025-03-09T21:19:39.840384","MEAN_MOTION":14.67557607,"ECCENTRICITY":0.0001453,"INCLINATION":98.0524,"RA_OF_ASC_NODE":181.739,"ARG_OF_PERICENTER":94.457,"MEAN_ANOMALY":265.6801,"EPHEMERIS_TYPE":0,"CLASSIFICATION_TYPE":"U","NORAD_CAT_ID":33492,"ELEMENT_SET_NO":999,"REV_AT_EPOCH":86336,"BSTAR":0.0002168,"MEAN_MOTION_DOT":1.182e-5,"MEAN_MOTION_DDOT":0},{"OBJECT_NAME":"YAOGAN-6","OBJECT_ID":"2009-021A","EPOCH":"2025-03-09T21:41:16.802016","MEAN_MOTION":15.76257494,"ECCENTRICITY":0.0004893,"INCLINATION":97.1981,"RA_OF_ASC_NODE":45.3277,"ARG_OF_PERICENTER":254.2167,"MEAN_ANOMALY":105.8559,"EPHEMERIS_TYPE":0,"CLASSIFICATION_TYPE":"U","NORAD_CAT_ID":34839,"ELEMENT_SET_NO":999,"REV_AT_EPOCH":88484,"BSTAR":0.00062719,"MEAN_MOTION_DOT":0.0009906,"MEAN_MOTION_DDOT":0},{"OBJECT_NAME":"DEIMOS-1","OBJECT_ID":"2009-041A","EPOCH":"2025-03-09T22:09:29.349504","MEAN_MOTION":14.74354905,"ECCENTRICITY":4.64e-5,"INCLINATION":97.6922,"RA_OF_ASC_NODE":242.9854,"ARG_OF_PERICENTER":174.0509,"MEAN_ANOMALY":186.0706,"EPHEMERIS_TYPE":0,"CLASSIFICATION_TYPE":"U","NORAD_CAT_ID":35681,"ELEMENT_SET_NO":999,"REV_AT_EPOCH":83845,"BSTAR":0.00023212,"MEAN_MOTION_DOT":1.491e-5,"MEAN_MOTION_DDOT":0},{"OBJECT_NAME":"DUBAISAT-1","OBJECT_ID":"2009-041B","EPOCH":"2025-03-09T21:29:43.375488","MEAN_MOTION":14.73515697,"ECCENTRICITY":0.0011804,"INCLINATION":97.9377,"RA_OF_ASC_NODE":204.5531,"ARG_OF_PERICENTER":119.5327,"MEAN_ANOMALY":240.7059,"EPHEMERIS_TYPE":0,"CLASSIFICATION_TYPE":"U","NORAD_CAT_ID":35682,"ELEMENT_SET_NO":999,"REV_AT_EPOCH":83674,"BSTAR":0.00045016,"MEAN_MOTION_DOT":2.88e-5,"MEAN_MOTION_DDOT":0}]
