COSMO-SKYMED 1          
1 31598U 07023A   25068.92494184  .00001164  00000+0  15272-3 0  9991
2 31598  97.8917 254.2608 0001352  81.5593 278.5773 14.82167327960485
TERRASAR-X              
1 31698U 07026A   25068.55690894  .00003823  00000+0  18517-3 0  9999
2 31698  97.4466  77.9000 0002136  85.3652 274.7826 15.19145384983343
WORLDVIEW-1 (WV-1)      
1 32060U 07041A   25068.92474310  .00016058  00000+0  65211-3 0  9991
2 32060  97.3863 190.4756 0002749 164.5902 195.5420 15.24658380972208
YAOGAN-3                
1 32289U 07055A   25068.94214776  .00004653  00000+0  51211-3 0  9992
2 32289  97.8643  97.9096 0001749 109.1756 250.9649 14.88056351936759
COSMO-SKYMED 2          
1 32376U 07059A   25068.89118765  .00001157  00000+0  15188-3 0  9997
2 32376  97.8915 254.2193 0001374  84.8015 275.3355 14.82158229933220
RADARSAT-2              
1 32382U 07061A   25068.92105957  .00000191  00000+0  90970-4 0  9990
2 32382  98.5813  77.4692 0001212  89.6857 270.4464 14.29983463899606
CARTOSAT-2A             
1 32783U 08021A   25068.90429503  .00001526  00000+0  21430-3 0  9993
2 32783  97.8280 126.8399 0011975 175.0434 185.0898 14.78782855910187
HUANJING 1A (HJ-1A)     
1 33320U 08041A   25068.94809176  .00003470  00000+0  44066-3 0  9995
2 33320  97.6394  69.3281 0018534 217.8859 142.1052 14.82165842889596
HUANJING 1B (HJ-1B)     
1 33321U 08041B   25068.95341572  .00002572  00000+0  32817-3 0  9991
2 33321  97.6297  73.6346 0035675 266.1853  93.5282 14.81859062889626
GEOEYE 1                
1 33331U 08042A   25068.89204034  .00001161  00000+0  22786-3 0  9994
2 33331  98.1193 143.7733 0005279  80.4427 279.7372 14.64525279882181
THEOS                   
1 33396U 08049A   25068.86448014  .00000148  00000+0  89529-4 0  9990
2 33396  98.6207 134.5688 0001262 102.5646 257.5672 14.20073604852082
COSMO-SKYMED 3          
1 33412U 08054A   25068.87212082  .00007548  00000+0  57352-3 0  9999
2 33412  97.8785 274.6862 0018411  37.6840 322.5670 15.02326018887115
YAOGAN-4                
1 33446U 08061A   25068.86736295  .00002444  00000+0  31707-3 0  9996
2 33446  97.8989   2.3217 0015767 137.8172 222.4257 14.81606998876874
GOSAT (IBUKI)           
1 33492U 09002A   25068.88865556  .00001182  00000+0  21680-3 0  9995
2 33492  98.0524 181.7390 0001453  94.4570 265.6801 14.67557607863364
YAOGAN-6                
1 34839U 09021A   25068.90366669  .00099060  00000+0  62719-3 0  9996
2 34839  97.1981  45.3277 0004893 254.2167 105.8559 15.76257494884848
DEIMOS-1                
1 35681U 09041A   25068.92325636  .00001491  00000+0  23212-3 0  9991
2 35681  97.6922 242.9854 0000464 174.0509 186.0706 14.74354905838452
DUBAISAT-1              
1 35682U 09041B   25068.89564092  .00002880  00000+0  45016-3 0  9998
2 35682  97.9377 204.5531 0011804 119.5327 240.7059 14.73515697836743
